ONEWEB-0588             
1 55153U 23004P   23013.91667824 -.00049507  00000+0 -51070-2 0  9991
2 55153  86.5137 284.1457 0008479 201.1486  59.2780 14.90562407  1305
ONEWEB-0598             
1 55154U 23004Q   23013.91667824 -.00048504  00000+0 -49806-2 0  9992
2 55154  86.5097 284.1423 0009146 199.0613  63.5974 14.90736869  1301
ONEWEB-0599             
1 55155U 23004R   23013.91667824 -.00048012  00000+0 -48639-2 0  9990
2 55155  86.5122 284.1443 0011511 202.3675  67.1984 14.91256144  1303
ONEWEB-0614             
1 55156U 23004S   23013.91667824 -.00048176  00000+0 -49397-2 0  9994
2 55156  86.5113 284.1430 0009347 197.9630  65.4470 14.90791841  1302
ONEWEB-0616             
1 55157U 23004T   23013.91667824 -.00048577  00000+0 -49500-2 0  9996
2 55157  86.5107 284.1404 0010698 199.8187  66.9072 14.91031898  1300
ONEWEB-0617             
1 55158U 23004U   23014.25001157  .00009839  00000+0  10063-2 0  9994
2 55158  86.5130 283.9972 0008007 201.4099  44.8172 14.90423913   753
ONEWEB-0618             
1 55159U 23004V   23013.91667824 -.00048269  00000+0 -49098-2 0  9998
2 55159  86.5121 284.1443 0010847 199.9540  67.3674 14.91101016  1304
ONEWEB-0619             
1 55160U 23004W   23013.91667824 -.00048196  00000+0 -48683-2 0  9998
2 55160  86.5113 284.1413 0011961 202.8347  68.0759 14.91370191  1305
ONEWEB-0620             
1 55161U 23004X   23013.91667824 -.00048812  00000+0 -50235-2 0  9990
2 55161  86.5091 284.1418 0008843 200.4185  61.1470 14.90650449  1305
ONEWEB-0621             
1 55162U 23004Y   23013.91667824 -.00050138  00000+0 -51970-2 0  9992
2 55162  86.5115 284.1441 0007923 204.3474  53.8726 14.90376748  1300
ONEWEB-0622             
1 55163U 23004Z   23013.91667824 -.00050069  00000+0 -51760-2 0  9993
2 55163  86.5133 284.1449 0008144 202.3718  56.9832 14.90482074  1306
ONEWEB-0623             
1 55164U 23004AA  23013.91667824 -.00049670  00000+0 -49754-2 0  9990
2 55164  86.5101 284.1417 0012858 210.2315  65.2997 14.91702319  1308
ONEWEB-0624             
1 55165U 23004AB  23013.91667824 -.00048777  00000+0 -48657-2 0  9999
2 55165  86.5128 284.1393 0012922 213.1627  64.3945 14.91863226  1309
ONEWEB-0625             
1 55166U 23004AC  23014.25001157  .00008256  00000+0  82984-3 0  9997
2 55166  86.5108 283.9922 0010920 198.8721  56.8336 14.91088223   757
ONEWEB-0626             
1 55167U 23004AD  23013.91667824 -.00047924  00000+0 -47757-2 0  9994
2 55167  86.5104 284.1413 0012921 213.5842  64.4126 14.91899636  1306
ONEWEB-0627             
1 55168U 23004AE  23013.91667824 -.00047498  00000+0 -47505-2 0  9992
2 55168  86.5097 284.1414 0012899 210.9615  65.1052 14.91752850  1304
ONEWEB-0628             
1 55169U 23004AF  23013.91667824 -.00047283  00000+0 -47209-2 0  9996
2 55169  86.5132 284.1397 0012890 212.0860  64.8355 14.91820473  1300
ONEWEB-0629             
1 55170U 23004AG  23013.91667824 -.00047731  00000+0 -47464-2 0  9999
2 55170  86.5115 284.1400 0013196 215.0808  63.9702 14.91980322  1309
ONEWEB-0631             
1 55171U 23004AH  23013.91667824 -.00048735  00000+0 -48817-2 0  9998
2 55171  86.5126 284.1397 0012804 209.6635  65.5796 14.91698541  1309
ONEWEB-0709             
1 55172U 23004AJ  23013.91667824 -.00048490  00000+0 -49929-2 0  9992
2 55172  86.5092 284.1415 0008735 200.8092  60.4092 14.90628959  1309
ONEWEB-0710             
1 55173U 23004AK  23013.91667824 -.00049842  00000+0 -50037-2 0  9997
2 55173  86.5114 284.1411 0012626 208.2021  65.9196 14.91617135  1309
ONEWEB-0711             
1 55174U 23004AL  23013.91667824 -.00048502  00000+0 -50085-2 0  9993
2 55174  86.5091 284.1425 0008288 202.0507  57.7237 14.90516683  1309
ONEWEB-0713             
1 55175U 23004AM  23013.91667824 -.00049814  00000+0 -51565-2 0  9995
2 55175  86.5101 284.1433 0007996 203.6735  54.9918 14.90427941  1309
ONEWEB-0715             
1 55176U 23004AN  23013.91667824 -.00049451  00000+0 -51045-2 0  9996
2 55176  86.5137 284.1454 0008335 201.4322  58.6668 14.90537685  1308
ONEWEB-0716             
1 55177U 23004AP  23013.91667824 -.00048054  00000+0 -48598-2 0  9994
2 55177  86.5123 284.1436 0011770 202.7593  67.5998 14.91322682  1300
ONEWEB-0717             
1 55178U 23004AQ  23013.91667824 -.00049814  00000+0 -51234-2 0  9991
2 55178  86.5095 284.1422 0009027 199.5596  62.5589 14.90679738  1309
ONEWEB-0719             
1 55179U 23004AR  23013.91667824 -.00049506  00000+0 -50477-2 0  9998
2 55179  86.5108 284.1410 0010570 199.7063  66.6929 14.91014083  1308
1998-067UY              
1 55181U 98067UY  23013.30374372  .00076173  00000+0  12668-2 0  9996
2 55181  51.6420  15.6895 0003372 220.7424 139.3314 15.51365324  1088
HSKSAT                  
1 55182U 98067UZ  23013.30324872  .00053376  00000+0  89317-3 0  9993
2 55182  51.6419  15.6864 0002840 204.3389 155.7467 15.51346832  1095
1998-067VA              
1 55183U 98067VA  23013.68993105  .00045842  00000+0  77010-3 0  9992
2 55183  51.6426  13.7692 0005126 299.8594  60.1886 15.51295548  1157
2023-005A               
1 55239U 23005A   23013.40443782  .00001842 -58154-5  00000+0 0  9998
2 55239  28.5069  20.9695 0303135  94.8805  15.9549 15.43747340   108
2023-005B               
1 55240U 23005B   23014.35039054  .00002048 -64591-5  00000+0 0  9999
2 55240  28.5073  13.8869 0203755 125.7997  14.0231 15.75940515   250
2023-006A               
1 55242U 23006A   23014.29450157  .00017083  00000+0  86256-3 0  9990
2 55242  43.2002 200.7624 0009847 286.5139 244.7492 15.16807071   158
2023-006B               
1 55243U 23006B   23014.29549428 -.00011591  00000+0 -56863-3 0  9992
2 55243  43.2007 200.7553 0009594 283.6427 252.8447 15.16730799   154
2023-006C               
1 55244U 23006C   23014.29684764 -.00015545  00000+0 -78139-3 0  9999
2 55244  43.1995 200.7539 0007015 273.6626 267.9923 15.16110838   107
2023-006D               
1 55245U 23006D   23014.29827125  .00018885  00000+0  96800-3 0  9993
2 55245  43.2000 200.7430 0007558 276.9848 272.8061 15.16239620   110
